ONEWEB-0228             
1 48780U 21045P   24033.54439790  .00000180  00000+0  44378-3 0  9999
2 48780  87.8950  71.4871 0001994  96.7183 263.4175 13.15546921130516
